[{"OBJECT_NAME":"STARLINK-4670","OBJECT_ID":"2022-107AW","EPOCH":"2026-03-09T20:29:46.689504","MEAN_MOTION":15.08847987,"ECCENTRICITY":0.00012348,"INCLINATION":53.2171,"RA_OF_ASC_NODE":263.0068,"ARG_OF_PERICENTER":86.2844,"MEAN_ANOMALY":273.829,"EPHEMERIS_TYPE":0,"CLASSIFICATION_TYPE":"U","NORAD_CAT_ID":53744,"ELEMENT_SET_NO":999,"REV_AT_EPOCH":19462,"BSTAR":9.1511581e-5,"MEAN_MOTION_DOT":1.169e-5,"MEAN_MOTION_DDOT":0},{"OBJECT_NAME":"CZ-2C DEB","OBJECT_ID":"2011-039F","EPOCH":"2026-03-09T17:45:14.166720","MEAN_MOTION":15.09482172,"ECCENTRICITY":0.00342492,"INCLINATION":97.9174,"RA_OF_ASC_NODE":359.6762,"ARG_OF_PERICENTER":347.2377,"MEAN_ANOMALY":72.5812,"EPHEMERIS_TYPE":0,"CLASSIFICATION_TYPE":"U","NORAD_CAT_ID":37770,"ELEMENT_SET_NO":999,"REV_AT_EPOCH":77853,"BSTAR":0.0024394871,"MEAN_MOTION_DOT":0.00039734,"MEAN_MOTION_DDOT":0}]
